[{"OBJECT_NAME":"STARLINK-35193","OBJECT_ID":"2025-224H","EPOCH":"2026-03-09T01:21:57.257280","MEAN_MOTION":15.30213872,"ECCENTRICITY":0.00012146,"INCLINATION":53.1611,"RA_OF_ASC_NODE":14.5512,"ARG_OF_PERICENTER":120.2525,"MEAN_ANOMALY":239.8597,"EPHEMERIS_TYPE":0,"CLASSIFICATION_TYPE":"U","NORAD_CAT_ID":65889,"ELEMENT_SET_NO":999,"REV_AT_EPOCH":2475,"BSTAR":0.00084703262,"MEAN_MOTION_DOT":0.00024822,"MEAN_MOTION_DDOT":0},{"OBJECT_NAME":"CERISE","OBJECT_ID":"1995-033B","EPOCH":"2026-03-09T23:11:27.589056","MEAN_MOTION":15.32047731,"ECCENTRICITY":0.00057118,"INCLINATION":98.325,"RA_OF_ASC_NODE":273.5192,"ARG_OF_PERICENTER":211.8754,"MEAN_ANOMALY":148.214,"EPHEMERIS_TYPE":0,"CLASSIFICATION_TYPE":"U","NORAD_CAT_ID":23606,"ELEMENT_SET_NO":999,"REV_AT_EPOCH":66468,"BSTAR":0.00062940675,"MEAN_MOTION_DOT":0.00019422,"MEAN_MOTION_DDOT":0}]
